OBJECT_NAME,OBJECT_ID,EPOCH,MEAN_MOTION,ECCENTRICITY,INCLINATION,RA_OF_ASC_NODE,ARG_OF_PERICENTER,MEAN_ANOMALY,EPHEMERIS_TYPE,CLASSIFICATION_TYPE,NORAD_CAT_ID,ELEMENT_SET_NO,REV_AT_EPOCH,BSTAR,MEAN_MOTION_DOT,MEAN_MOTION_DDOT
ICEYE-X6,2020-068M,2026-06-17T20:33:14.768352,15.04528710,.0008782,98.0977,162.5596,88.8844,271.3387,0,U,46497,999,31333,.19792E-3,.2707E-4,0
NETSAT-4,2020-068U,2026-06-16T23:53:03.012000,15.43860202,.00038693,97.8600,176.2206,339.1494,20.9595,0,U,46504,999,31574,.32923971E-3,.14852E-3,0
NETSAT-3,2020-068V,2026-06-17T12:29:06.542304,15.42688001,.0004166,97.8649,175.0036,0.5703,359.5547,0,U,46505,999,31573,.34277E-3,.14868E-3,0
NETSAT-1,2020-068W,2026-06-17T12:38:22.090848,15.34649788,.0004996,97.8743,169.3378,31.5449,328.6092,0,U,46506,999,31535,.28756E-3,.9573E-4,0
NETSAT-2,2020-068X,2026-06-17T11:43:32.340000,15.46009035,.00034123,97.8608,176.6489,26.1763,333.9657,0,U,46507,999,31578,.38293481E-3,.1861E-3,0
TIANQI-6,2020-076D,2026-06-17T01:43:28.059456,15.07182646,.000998,34.9999,49.1720,173.8601,186.2232,0,U,46810,999,30856,.1990833E-3,.3032E-4,0
KSM1-C,2020-081B,2026-06-17T21:06:02.790144,15.26747580,.0003233,36.8961,54.6694,252.0041,108.0356,0,U,46906,999,30927,.23265E-3,.6169E-4,0
KSM1-D,2020-081C,2026-06-17T21:09:48.760704,15.24727441,.0005215,36.8967,63.6770,270.6601,89.3550,0,U,46907,999,30920,.23305E-3,.5812E-4,0
KSM1-A,2020-081H,2026-06-17T21:11:11.513760,15.25966724,.0004513,36.8973,57.0456,306.9387,53.0948,0,U,46912,999,30928,.24623E-3,.6382E-4,0
R2,2020-081J,2026-06-16T09:34:24.540960,15.25417890,.00092076,36.8988,66.1712,277.8329,82.1375,0,U,46913,999,31186,.23914112E-3,.6097E-4,0
KSM1-B,2020-081K,2026-06-17T03:57:30.189600,15.24509148,.00069225,36.9022,68.6938,279.9699,80.0269,0,U,46914,999,31218,.24896945E-3,.6176E-4,0
GONETS-M 20,2020-091A,2026-06-17T19:27:51.164640,12.42893402,.0021219,82.5050,302.0476,176.4982,183.6250,0,U,47227,999,25115,-.13908E-3,-.9E-7,0
GONETS-M 21,2020-091B,2026-06-17T18:50:13.075584,12.42886478,.0014788,82.4975,300.7704,189.5073,170.5729,0,U,47228,999,25114,-.2092E-3,-.19E-6,0
GONETS-M 22,2020-091C,2026-06-17T20:07:23.568672,12.42892793,.002216,82.5032,301.6362,171.8963,188.2479,0,U,47229,999,25110,.16338E-3,.33E-6,0
CUBEL,2021-006AM,2026-06-17T14:47:32.451648,15.41248290,.0007265,97.2328,219.1961,160.4666,199.6861,0,U,47448,999,29982,.38766E-3,.16061E-3,0
ARKTIKA-M 1,2021-016A,2026-06-17T11:46:36.471360,2.00622504,.72885287,63.2922,57.5948,269.9420,14.6012,0,U,47719,999,3879,0,-.21E-5,0
STARLINK-2342,2021-021Z,2026-06-17T20:00:01.999008,15.81228418,.000159,53.1543,144.8358,121.6145,23.4774,0,U,47883,999,592,.73445E-3,.149225E-2,0
GRUS-1B,2021-022C,2026-06-17T20:16:13.458144,14.98887426,.0015387,97.5406,52.0235,325.6555,34.3673,0,U,47934,999,28599,.43683E-4,.471E-5,0
UNISAT-7,2021-022P,2026-06-17T16:17:54.722112,15.40479056,.0011089,97.3890,73.6088,77.1597,283.0887,0,U,47945,999,28993,.28986E-3,.11691E-3,0
GLOBAL-9,2021-023G,2026-06-16T22:19:52.301280,15.46602642,.00047727,44.9809,251.9707,316.5979,43.4534,0,U,47971,999,29490,.34642948E-3,.17324E-3,0
AII-BRAVO,2021-034C,2026-06-17T14:53:14.255232,15.03485940,.0004131,97.5626,223.5209,257.0698,103.0067,0,U,48270,999,27968,.24344E-3,.3259E-4,0
TYVAK-182A,2021-034D,2026-06-17T20:40:53.637888,15.06168695,.000503,97.5711,227.7674,340.2422,19.8609,0,U,48271,999,27993,.25545E-3,.368E-4,0
CSS (TIANHE),2021-035A,2026-06-17T19:24:44.390304,15.60835747,.0007413,41.4699,318.2185,82.3362,277.8318,0,U,48274,999,29326,.24305E-3,.20611E-3,0
TYVAK-0130,2021-041BF,2026-06-17T18:21:34.261632,15.27566998,.001033,52.9947,23.4037,163.7173,196.4159,0,U,48606,999,28047,.18511E-3,.4713E-4,0
HAIYANG-2D,2021-043A,2026-06-17T20:54:00.342720,13.83370808,.0011447,66.0002,302.9968,268.9762,90.9995,0,U,48621,999,25664,.12987E-3,.62E-6,0
2021-050D,2021-050D,2026-06-17T20:40:02.064000,15.23335000,.0003936,97.3338,244.8809,258.7984,101.2811,0,U,48843,999,27906,.16979E-3,.3963E-4,0
TYVAK-0173,2021-059P,2026-06-17T17:42:36.618048,14.81892372,.0010034,96.0086,244.9576,38.0764,322.1161,0,U,48892,999,26832,.17806E-3,.1378E-4,0
MANDRAKE 2 ABLE,2021-059AE,2026-06-17T11:53:49.904736,15.54998571,.00043722,97.7030,358.3033,4.7910,355.3384,0,U,48907,999,27717,.25905684E-3,.17277E-3,0
MANDRAKE 2 BAKER,2021-059AF,2026-06-17T11:46:30.544320,15.59575143,.00029112,97.6999,1.1713,5.5492,354.5795,0,U,48908,999,27734,.28328589E-3,.22431E-3,0
