ICEYE-X6                
1 46497U 20068M   26168.85642093  .00002707  00000+0  19792-3 0  9992
2 46497  98.0977 162.5596 0008782  88.8844 271.3387 15.04528710313338
NETSAT-4                
1 46504U 20068U   26167.99517375  .00014852  00000+0  32924-3 0  9995
2 46504  97.8600 176.2206 0003869 339.1494  20.9595 15.43860202315745
NETSAT-3                
1 46505U 20068V   26168.52021461  .00014868  00000+0  34277-3 0  9992
2 46505  97.8649 175.0036 0004166   0.5703 359.5547 15.42688001315731
NETSAT-1                
1 46506U 20068W   26168.52664457  .00009573  00000+0  28756-3 0  9993
2 46506  97.8743 169.3378 0004996  31.5449 328.6092 15.34649788315354
NETSAT-2                
1 46507U 20068X   26168.48856875  .00018610  00000+0  38293-3 0  9995
2 46507  97.8608 176.6489 0003412  26.1763 333.9657 15.46009035315781
TIANQI-6                
1 46810U 20076D   26168.07185254  .00003032  00000+0  19908-3 0  9996
2 46810  34.9999  49.1720 0009980 173.8601 186.2232 15.07182646308565
KSM1-C                  
1 46906U 20081B   26168.87919896  .00006169  00000+0  23265-3 0  9998
2 46906  36.8961  54.6694 0003233 252.0041 108.0356 15.26747580309278
KSM1-D                  
1 46907U 20081C   26168.88181436  .00005812  00000+0  23305-3 0  9990
2 46907  36.8967  63.6770 0005215 270.6601  89.3550 15.24727441309202
KSM1-A                  
1 46912U 20081H   26168.88277215  .00006382  00000+0  24623-3 0  9994
2 46912  36.8973  57.0456 0004513 306.9387  53.0948 15.25966724309284
R2                      
1 46913U 20081J   26167.39889515  .00006097  00000+0  23914-3 0  9997
2 46913  36.8988  66.1712 0009207 277.8329  82.1375 15.25417890311863
KSM1-B                  
1 46914U 20081K   26168.16493275  .00006176  00000+0  24897-3 0  9997
2 46914  36.9022  68.6938 0006922 279.9699  80.0269 15.24509148312187
GONETS-M 20             
1 47227U 20091A   26168.81100885 -.00000009  00000+0 -13908-3 0  9992
2 47227  82.5050 302.0476 0021219 176.4982 183.6250 12.42893402251152
GONETS-M 21             
1 47228U 20091B   26168.78487356 -.00000019  00000+0 -20920-3 0  9993
2 47228  82.4975 300.7704 0014788 189.5073 170.5729 12.42886478251146
GONETS-M 22             
1 47229U 20091C   26168.83846723  .00000033  00000+0  16338-3 0  9999
2 47229  82.5032 301.6362 0022160 171.8963 188.2479 12.42892793251108
CUBEL                   
1 47448U 21006AM  26168.61634782  .00016061  00000+0  38766-3 0  9992
2 47448  97.2328 219.1961 0007265 160.4666 199.6861 15.41248290299824
ARKTIKA-M 1             
1 47719U 21016A   26168.49069990 -.00000210  00000+0  00000+0 0  9999
2 47719  63.2922  57.5948 7288528 269.9420  14.6012  2.00622504 38796
STARLINK-2342           
1 47883U 21021Z   26168.83335647  .00149225  00000+0  73445-3 0  9996
2 47883  53.1543 144.8358 0001590 121.6145  23.4774 15.81228418  5924
GRUS-1B                 
1 47934U 21022C   26168.84460021  .00000471  00000+0  43683-4 0  9991
2 47934  97.5406  52.0235 0015387 325.6555  34.3673 14.98887426285998
UNISAT-7                
1 47945U 21022P   26168.67910558  .00011691  00000+0  28986-3 0  9993
2 47945  97.3890  73.6088 0011089  77.1597 283.0887 15.40479056289932
GLOBAL-9                
1 47971U 21023G   26167.93046645  .00017324  00000+0  34643-3 0  9994
2 47971  44.9809 251.9707 0004772 316.5979  43.4534 15.46602642294908
AII-BRAVO               
1 48270U 21034C   26168.62030388  .00003259  00000+0  24344-3 0  9992
2 48270  97.5626 223.5209 0004131 257.0698 103.0067 15.03485940279685
TYVAK-182A              
1 48271U 21034D   26168.86173192  .00003680  00000+0  25545-3 0  9992
2 48271  97.5711 227.7674 0005030 340.2422  19.8609 15.06168695279934
CSS (TIANHE)            
1 48274U 21035A   26168.80884711  .00020611  00000+0  24305-3 0  9992
2 48274  41.4699 318.2185 0007413  82.3362 277.8318 15.60835747293261
TYVAK-0130              
1 48606U 21041BF  26168.76497988  .00004713  00000+0  18511-3 0  9996
2 48606  52.9947  23.4037 0010330 163.7173 196.4159 15.27566998280470
HAIYANG-2D              
1 48621U 21043A   26168.87083730  .00000062  00000+0  12987-3 0  9997
2 48621  66.0002 302.9968 0011447 268.9762  90.9995 13.83370808256646
2021-050D               
1 48843U 21050D   26168.86113500  .00003963  00000+0  16979-3 0  9997
2 48843  97.3338 244.8809 0003936 258.7984 101.2811 15.23335000279061
TYVAK-0173              
1 48892U 21059P   26168.73792382  .00001378  00000+0  17806-3 0  9995
2 48892  96.0086 244.9576 0010034  38.0764 322.1161 14.81892372268327
MANDRAKE 2 ABLE         
1 48907U 21059AE  26168.49571649  .00017277  00000+0  25906-3 0  9991
2 48907  97.7030 358.3033 0004372   4.7910 355.3384 15.54998571277177
MANDRAKE 2 BAKER        
1 48908U 21059AF  26168.49063130  .00022431  00000+0  28329-3 0  9993
2 48908  97.6999   1.1713 0002911   5.5492 354.5795 15.59575143277347
